ONEWEB-0161             
1 48053U 21025M   25307.60708810  .00000314  00000+0  82354-3 0  9999
2 48053  87.9021   5.0598 0001890  93.3051 266.8295 13.13470966223897
ONEWEB-0158             
1 48054U 21025N   25306.42378507 -.00000295  00000+0 -84186-3 0  9990
2 48054  87.9033   5.2765 0001887 108.9386 251.1948 13.13471599223861
ONEWEB-0157             
1 48055U 21025P   25307.59185100  .00000230  00000+0  59576-3 0  9997
2 48055  87.9028   5.0513 0001946  81.2121 278.9229 13.13470765223954
ONEWEB-0162             
1 48056U 21025Q   25307.56801664  .00000215  00000+0  55379-3 0  9995
2 48056  87.9041   5.0574 0001919  90.9764 269.1585 13.13466401223923
ONEWEB-0155             
1 48057U 21025R   25306.20372919 -.00000287  00000+0 -82084-3 0  9996
2 48057  87.9031   5.3335 0002030  98.7764 261.3595 13.13469080223888
ONEWEB-0149             
1 48058U 21025S   25307.59691814  .00000036  00000+0  64417-4 0  9999
2 48058  87.9027   5.0511 0001681  95.1533 264.9788 13.13471855223878
ONEWEB-0148             
1 48059U 21025T   25306.41702196 -.00000181  00000+0 -53156-3 0  9996
2 48059  87.9031   5.3077 0001568  80.5614 279.5693 13.13469918223847
ONEWEB-0160             
1 48060U 21025U   25306.43393615  .00000374  00000+0  98993-3 0  9992
2 48060  87.9026   5.3015 0001947 122.4438 237.6879 13.13465995223792
ONEWEB-0163             
1 48061U 21025V   25306.41871428 -.00000203  00000+0 -59201-3 0  9996
2 48061  87.9037   5.2879 0002063  93.0759 267.0606 13.13469729223919
ONEWEB-0159             
1 48062U 21025W   25307.62908860  .00000126  00000+0  30928-3 0  9999
2 48062  87.9038   5.0310 0001863  91.4887 268.6456 13.13468324223998
ONEWEB-0164             
1 48063U 21025X   25306.46779441  .00000377  00000+0  99638-3 0  9993
2 48063  87.9031   5.2692 0001856 101.7035 258.4302 13.13472440223822
ONEWEB-0167             
1 48064U 21025Y   25306.41956125 -.00000243  00000+0 -69991-3 0  9998
2 48064  87.9025   5.3091 0002599  97.9206 262.2218 13.13469885223807
ONEWEB-0166             
1 48065U 21025Z   25306.44241192 -.00000016  00000+0 -79186-4 0  9999
2 48065  87.9032   5.2579 0001785  93.1351 266.9983 13.13470164223881
ONEWEB-0151             
1 48066U 21025AA  25307.58675855 -.00000413  00000+0 -11649-2 0  9992
2 48066  87.9033   5.0566 0002008  99.8263 260.3093 13.13470088223976
ONEWEB-0170             
1 48067U 21025AB  25306.45257378  .00000173  00000+0  43937-3 0  9991
2 48067  87.9030   5.2887 0002117 111.1566 248.9790 13.13469585223782
ONEWEB-0168             
1 48068U 21025AC  25306.43733558 -.00000162  00000+0 -47759-3 0  9995
2 48068  87.9033   5.2736 0001964  93.4614 266.6739 13.13469716223791
ONEWEB-0173             
1 48069U 21025AD  25306.42885929 -.00000251  00000+0 -72172-3 0  9991
2 48069  87.9033   5.2830 0002201  92.3208 267.8173 13.13468950224031
